{
  "type": "FeatureCollection",
  "features": [
    {
      "type": "Feature",
      "properties": {
        "norad_id": 24876,
        "name": "GPS BIIR-2  (PRN 13)",
        "group": "gps-ops",
        "lat": -46.7001422045589,
        "lon": 59.5200210223541,
        "alt_km": 20307.778803151195,
        "timestamp": "2025-12-24T14:43:29.260425+00:00",
        "meta_object_name": "GPS BIIR-2  (PRN 13)",
        "meta_object_id": "1997-035A",
        "meta_epoch": "2025-12-23T04:52:08.851872",
        "meta_mean_motion": 2.00563705,
        "meta_eccentricity": 0.0096844,
        "meta_inclination": 55.9001,
        "meta_ra_of_asc_node": 105.4597,
        "meta_arg_of_pericenter": 56.9573,
        "meta_mean_anomaly": 303.9609,
        "meta_ephemeris_type": 0,
        "meta_classification_type": "U",
        "meta_norad_cat_id": 24876,
        "meta_element_set_no": 999,
        "meta_rev_at_epoch": 20842,
        "meta_bstar": 0,
        "meta_mean_motion_dot": 2e-07,
        "meta_mean_motion_ddot": 0,
        "tle_line1": "1 24876U 97035A   25357.20288023  .00000020  00000+0  00000+0 0  9998",
        "tle_line2": "2 24876  55.9001 105.4597 0096844  56.9573 303.9609  2.00563705208420"
      },
      "geometry": {
        "type": "Point",
        "coordinates": [
          59.5200210223541,
          -46.7001422045589
        ]
      }
    },
    {
      "type": "Feature",
      "properties": {
        "norad_id": 26360,
        "name": "GPS BIIR-4  (PRN 20)",
        "group": "gps-ops",
        "lat": 25.54309402479499,
        "lon": 45.88877619164992,
        "alt_km": 20267.102772082348,
        "timestamp": "2025-12-24T14:43:29.260454+00:00",
        "meta_object_name": "GPS BIIR-4  (PRN 20)",
        "meta_object_id": "2000-025A",
        "meta_epoch": "2025-12-24T00:51:46.954368",
        "meta_mean_motion": 2.00566722,
        "meta_eccentricity": 0.00388905,
        "meta_inclination": 55.0519,
        "meta_ra_of_asc_node": 26.3811,
        "meta_arg_of_pericenter": 243.065,
        "meta_mean_anomaly": 91.4559,
        "meta_ephemeris_type": 0,
        "meta_classification_type": "U",
        "meta_norad_cat_id": 26360,
        "meta_element_set_no": 999,
        "meta_rev_at_epoch": 18775,
        "meta_bstar": 0,
        "meta_mean_motion_dot": -5.6e-07,
        "meta_mean_motion_ddot": 0,
        "tle_line1": "1 26360U 00025A   25358.03596012 -.00000056  00000+0  00000+0 0  9993",
        "tle_line2": "2 26360  55.0519  26.3811 0038890 243.0650  91.4559  2.00566722187754"
      },
      "geometry": {
        "type": "Point",
        "coordinates": [
          45.88877619164992,
          25.54309402479499
        ]
      }
    },
    {
      "type": "Feature",
      "properties": {
        "norad_id": 26407,
        "name": "GPS BIIR-5  (PRN 22)",
        "group": "gps-ops",
        "lat": -38.69642378980388,
        "lon": 76.40812262609765,
        "alt_km": 20080.926758085887,
        "timestamp": "2025-12-24T14:43:29.260471+00:00",
        "meta_object_name": "GPS BIIR-5  (PRN 22)",
        "meta_object_id": "2000-040A",
        "meta_epoch": "2025-12-24T00:49:48.055872",
        "meta_mean_motion": 2.00568088,
        "meta_eccentricity": 0.01253966,
        "meta_inclination": 54.8883,
        "meta_ra_of_asc_node": 222.1199,
        "meta_arg_of_pericenter": 301.9909,
        "meta_mean_anomaly": 231.2222,
        "meta_ephemeris_type": 0,
        "meta_classification_type": "U",
        "meta_norad_cat_id": 26407,
        "meta_element_set_no": 999,
        "meta_rev_at_epoch": 18643,
        "meta_bstar": 0,
        "meta_mean_motion_dot": 6.5e-07,
        "meta_mean_motion_ddot": 0,
        "tle_line1": "1 26407U 00040A   25358.03458398  .00000065  00000+0  00000+0 0  9995",
        "tle_line2": "2 26407  54.8883 222.1199 0125396 301.9909 231.2222  2.00568088186433"
      },
      "geometry": {
        "type": "Point",
        "coordinates": [
          76.40812262609765,
          -38.69642378980388
        ]
      }
    },
    {
      "type": "Feature",
      "properties": {
        "norad_id": 27663,
        "name": "GPS BIIR-8  (PRN 16)",
        "group": "gps-ops",
        "lat": 4.866815591517464,
        "lon": -134.65128798813,
        "alt_km": 19905.20295593229,
        "timestamp": "2025-12-24T14:43:29.260485+00:00",
        "meta_object_name": "GPS BIIR-8  (PRN 16)",
        "meta_object_id": "2003-005A",
        "meta_epoch": "2025-12-23T07:51:19.360224",
        "meta_mean_motion": 2.00570305,
        "meta_eccentricity": 0.0147825,
        "meta_inclination": 54.921,
        "meta_ra_of_asc_node": 221.9571,
        "meta_arg_of_pericenter": 51.9554,
        "meta_mean_anomaly": 106.5355,
        "meta_ephemeris_type": 0,
        "meta_classification_type": "U",
        "meta_norad_cat_id": 27663,
        "meta_element_set_no": 999,
        "meta_rev_at_epoch": 16778,
        "meta_bstar": 0,
        "meta_mean_motion_dot": 6.6e-07,
        "meta_mean_motion_ddot": 0,
        "tle_line1": "1 27663U 03005A   25357.32730741  .00000066  00000+0  00000+0 0  9991",
        "tle_line2": "2 27663  54.9210 221.9571 0147825  51.9554 106.5355  2.00570305167786"
      },
      "geometry": {
        "type": "Point",
        "coordinates": [
          -134.65128798813,
          4.866815591517464
        ]
      }
    },
    {
      "type": "Feature",
      "properties": {
        "norad_id": 28190,
        "name": "GPS BIIR-11 (PRN 19)",
        "group": "gps-ops",
        "lat": 11.842713189979158,
        "lon": 94.28811399425517,
        "alt_km": 19892.82069650745,
        "timestamp": "2025-12-24T14:43:29.260498+00:00",
        "meta_object_name": "GPS BIIR-11 (PRN 19)",
        "meta_object_id": "2004-009A",
        "meta_epoch": "2025-12-22T01:59:41.237952",
        "meta_mean_motion": 2.00560473,
        "meta_eccentricity": 0.01084919,
        "meta_inclination": 54.9772,
        "meta_ra_of_asc_node": 282.8425,
        "meta_arg_of_pericenter": 167.7907,
        "meta_mean_anomaly": 330.6754,
        "meta_ephemeris_type": 0,
        "meta_classification_type": "U",
        "meta_norad_cat_id": 28190,
        "meta_element_set_no": 999,
        "meta_rev_at_epoch": 15939,
        "meta_bstar": 0,
        "meta_mean_motion_dot": -2.4e-07,
        "meta_mean_motion_ddot": 0,
        "tle_line1": "1 28190U 04009A   25356.08311618 -.00000024  00000+0  00000+0 0  9997",
        "tle_line2": "2 28190  54.9772 282.8425 0108491 167.7907 330.6754  2.00560473159399"
      },
      "geometry": {
        "type": "Point",
        "coordinates": [
          94.28811399425517,
          11.842713189979158
        ]
      }
    },
    {
      "type": "Feature",
      "properties": {
        "norad_id": 28474,
        "name": "GPS BIIR-13 (PRN 02)",
        "group": "gps-ops",
        "lat": -34.8529370405382,
        "lon": -179.1753882823736,
        "alt_km": 20143.711267638926,
        "timestamp": "2025-12-24T14:43:29.260511+00:00",
        "meta_object_name": "GPS BIIR-13 (PRN 02)",
        "meta_object_id": "2004-045A",
        "meta_epoch": "2025-12-23T11:54:23.371776",
        "meta_mean_motion": 2.0057002,
        "meta_eccentricity": 0.01709537,
        "meta_inclination": 55.2353,
        "meta_ra_of_asc_node": 331.9733,
        "meta_arg_of_pericenter": 309.7322,
        "meta_mean_anomaly": 189.3988,
        "meta_ephemeris_type": 0,
        "meta_classification_type": "U",
        "meta_norad_cat_id": 28474,
        "meta_element_set_no": 999,
        "meta_rev_at_epoch": 15490,
        "meta_bstar": 0,
        "meta_mean_motion_dot": -6.3e-07,
        "meta_mean_motion_ddot": 0,
        "tle_line1": "1 28474U 04045A   25357.49610384 -.00000063  00000+0  00000+0 0  9993",
        "tle_line2": "2 28474  55.2353 331.9733 0170953 309.7322 189.3988  2.00570020154901"
      },
      "geometry": {
        "type": "Point",
        "coordinates": [
          -179.1753882823736,
          -34.8529370405382
        ]
      }
    },
    {
      "type": "Feature",
      "properties": {
        "norad_id": 28874,
        "name": "GPS BIIRM-1 (PRN 17)",
        "group": "gps-ops",
        "lat": -3.162829303600104,
        "lon": 102.43069654017003,
        "alt_km": 20297.40788086487,
        "timestamp": "2025-12-24T14:43:29.260523+00:00",
        "meta_object_name": "GPS BIIRM-1 (PRN 17)",
        "meta_object_id": "2005-038A",
        "meta_epoch": "2025-12-23T15:29:31.408224",
        "meta_mean_motion": 2.005777,
        "meta_eccentricity": 0.01313078,
        "meta_inclination": 55.0222,
        "meta_ra_of_asc_node": 280.2619,
        "meta_arg_of_pericenter": 293.8052,
        "meta_mean_anomaly": 272.4454,
        "meta_ephemeris_type": 0,
        "meta_classification_type": "U",
        "meta_norad_cat_id": 28874,
        "meta_element_set_no": 999,
        "meta_rev_at_epoch": 14831,
        "meta_bstar": 0,
        "meta_mean_motion_dot": -2e-07,
        "meta_mean_motion_ddot": 0,
        "tle_line1": "1 28874U 05038A   25357.64550241 -.00000020  00000+0  00000+0 0  9995",
        "tle_line2": "2 28874  55.0222 280.2619 0131307 293.8052 272.4454  2.00577700148312"
      },
      "geometry": {
        "type": "Point",
        "coordinates": [
          102.43069654017003,
          -3.162829303600104
        ]
      }
    }
  ]
}